GSAT0101 (PRN E11)      
1 37846U 11060A   21102.11049209 -.00000095  00000-0  00000-0 0  9993
2 37846  56.8050  33.0942 0004310 352.9264   7.0506  1.70475420 58869
GSAT0102 (PRN E12)      
1 37847U 11060B   21102.32318381 -.00000094  00000-0  00000-0 0  9996
2 37847  56.8059  33.0879 0005348 330.7003 206.0460  1.70475626 58874
GSAT0103 (PRN E19)      
1 38857U 12055A   21100.39233458  .00000034  00000-0  00000-0 0  9992
2 38857  55.0288 153.6086 0004666 264.1178  95.9194  1.70473788 52729
GSAT0104 (PRN E20)      
1 38858U 12055B   21099.74021350  .00000031  00000-0  00000-0 0  9992
2 38858  55.0294 153.6261 0003416 268.1903  91.8581  1.70473699 52720
GSAT0201 (PRN E18)      
1 40128U 14050A   21100.93058333 -.00000109  00000-0  00000-0 0  9994
2 40128  50.4984 349.5135 1650887 109.0612 269.4844  1.85519173 43195
GSAT0202 (PRN E14)      
1 40129U 14050B   21102.27120006 -.00000108  00000-0  00000-0 0  9990
2 40129  50.5302 348.5068 1648267 109.9200 268.5364  1.85519789 45389
GSAT0203 (PRN E26)      
1 40544U 15017A   21101.89188270 -.00000096  00000-0  00000-0 0  9995
2 40544  56.5992  33.1928 0003647 284.5729  75.3689  1.70474589 36943
GSAT0204 (PRN E22)      
1 40545U 15017B   21094.63359925 -.00000089  00000-0  00000+0 0  9997
2 40545  56.6021  33.4089 0001363 274.9538  85.0124  1.70474940 37486
GSAT0205 (PRN E24)      
1 40889U 15045A   21099.56772189 -.00000019  00000-0  00000-0 0  9991
2 40889  55.9276 273.9374 0005268  27.5319 332.4615  1.70475298 34710
GSAT0206 (PRN E30)      
1 40890U 15045B   21100.96036658 -.00000021  00000-0  00000-0 0  9997
2 40890  55.9257 273.8954 0003389  26.4339 333.5422  1.70475420 34766
GSAT0209 (PRN E09)      
1 41174U 15079A   21102.30767398  .00000041  00000-0  00000-0 0  9993
2 41174  55.0443 153.2561 0005140 302.5647  57.4804  1.70473821 32523
GSAT0208 (PRN E08)      
1 41175U 15079B   21101.35419019  .00000039  00000-0  00000+0 0  9998
2 41175  55.0431 153.2814 0004327 301.5534  58.4978  1.70473887 33089
GSAT0211 (PRN E02)      
1 41549U 16030A   21100.88865917 -.00000020  00000-0  00000-0 0  9992
2 41549  56.0696 273.7847 0003334 352.0227   7.9309  1.70475091 30396
GSAT0210 (PRN E01)      
1 41550U 16030B   21102.35465189 -.00000018  00000-0  00000-0 0  9992
2 41550  56.0694 273.7461 0001670 321.1682  38.7742  1.70475312 30413
GSAT0207 (PRN E07)      
1 41859U 16069A   21100.25400478  .00000033  00000-0  00000-0 0  9999
2 41859  54.7030 153.6012 0005144 290.4756  69.5589  1.70473745 27114
GSAT0212 (PRN E03)      
1 41860U 16069B   21101.28060632  .00000037  00000-0  00000-0 0  9993
2 41860  54.7006 153.5711 0003869 308.6267  51.4318  1.70473756 27386
GSAT0213 (PRN E04)      
1 41861U 16069C   21102.23287994  .00000040  00000-0  00000+0 0  9995
2 41861  54.7033 153.5490 0004796 271.6679  88.3716  1.70473828 27399
GSAT0214 (PRN E05)      
1 41862U 16069D   21101.20674755  .00000037  00000-0  00000-0 0  9994
2 41862  54.7013 153.5727 0003891 275.2899  84.7587  1.70473775 27375
GSAT0215 (PRN E21)      
1 43055U 17079A   21099.93760039 -.00000020  00000-0  00000-0 0  9992
2 43055  56.0453 273.6499 0001118 333.8823  26.0751  1.70474342 20693
GSAT0216 (PRN E25)      
1 43056U 17079B   21101.98988736 -.00000019  00000-0  00000-0 0  9996
2 43056  56.0441 273.5932 0002604 297.0047  62.9237  1.70474452 20748
GSAT0217 (PRN E27)      
1 43057U 17079C   21101.62342213 -.00000020  00000-0  00000-0 0  9994
2 43057  56.0421 273.6037 0002603 319.3025  40.6340  1.70474419 20726
GSAT0218 (PRN E31)      
1 43058U 17079D   21102.43000483 -.00000018  00000-0  00000-0 0  9992
2 43058  56.0421 273.5789 0002923 287.3860  72.5361  1.70474423 20762
GSAT0221 (PRN E15)      
1 43564U 18060A   21099.98213271 -.00000100  00000-0  00000-0 0  9993
2 43564  56.9836  32.9494 0004827 296.1030  63.8249  1.70475618 16877
GSAT0222 (PRN E33)      
1 43565U 18060B   21101.37515024 -.00000097  00000-0  00000-0 0  9997
2 43565  56.9865  32.9113 0004747 304.5896  55.3467  1.70475672 16949
GSAT0219 (PRN E36)      
1 43566U 18060C   21101.59573539 -.00000096  00000-0  00000-0 0  9996
2 43566  56.9870  32.9072 0004415 307.3762  52.5653  1.70475662 16928
GSAT0220 (PRN E13)      
1 43567U 18060D   21100.05577036 -.00000100  00000-0  00000-0 0  9999
2 43567  56.9860  32.9488 0004426 302.3485  57.5864  1.70475687 16889
